{
  "type": "FeatureCollection",
  "features": [
    {
      "type": "Feature",
      "properties": {
        "name": "Vietnam Mainland"
      },
      "geometry": {
        "type": "Polygon",
        "coordinates": [
          [
            [102.14, 22.82],
            [104.96, 22.82],
            [106.75, 22.00],
            [107.95, 21.54],
            [108.52, 20.98],
            [108.78, 19.90],
            [107.75, 18.68],
            [106.56, 16.92],
            [106.72, 16.02],
            [107.36, 15.27],
            [108.27, 14.42],
            [108.88, 13.42],
            [108.88, 12.25],
            [108.27, 11.67],
            [107.32, 11.56],
            [106.71, 10.99],
            [106.20, 10.48],
            [105.65, 10.02],
            [104.88, 9.50],
            [104.48, 9.90],
            [104.48, 10.48],
            [104.86, 10.95],
            [105.09, 11.65],
            [105.37, 12.45],
            [105.42, 13.45],
            [105.67, 14.57],
            [105.12, 15.42],
            [104.61, 16.21],
            [104.64, 17.43],
            [103.90, 18.35],
            [103.16, 19.48],
            [102.71, 20.75],
            [102.14, 22.82]
          ]
        ]
      }
    },
    {
      "type": "Feature",
      "properties": {
        "name": "Hoang Sa Islands"
      },
      "geometry": {
        "type": "Polygon",
        "coordinates": [
          [
            [111.6, 16.8],
            [112.0, 16.8],
            [112.0, 17.2],
            [111.6, 17.2],
            [111.6, 16.8]
          ]
        ]
      }
    },
    {
      "type": "Feature",
      "properties": {
        "name": "Truong Sa Islands"
      },
      "geometry": {
        "type": "Polygon",
        "coordinates": [
          [
            [112.8, 8.5],
            [113.3, 8.5],
            [113.3, 9.0],
            [112.8, 9.0],
            [112.8, 8.5]
          ]
        ]
      }
    }
  ]
}
